[{"OBJECT_NAME":"STARLINK-4690","OBJECT_ID":"2022-104S","EPOCH":"2026-03-09T17:35:37.261824","MEAN_MOTION":15.08838737,"ECCENTRICITY":0.00011973,"INCLINATION":53.2164,"RA_OF_ASC_NODE":238.7838,"ARG_OF_PERICENTER":92.2727,"MEAN_ANOMALY":267.8403,"EPHEMERIS_TYPE":0,"CLASSIFICATION_TYPE":"U","NORAD_CAT_ID":53604,"ELEMENT_SET_NO":999,"REV_AT_EPOCH":19569,"BSTAR":2.4406231e-5,"MEAN_MOTION_DOT":1.01e-6,"MEAN_MOTION_DDOT":0},{"OBJECT_NAME":"YUNYAO-1 48","OBJECT_ID":"2025-059F","EPOCH":"2026-03-09T22:24:05.789376","MEAN_MOTION":15.10574052,"ECCENTRICITY":0.00165064,"INCLINATION":97.6074,"RA_OF_ASC_NODE":250.9983,"ARG_OF_PERICENTER":137.6901,"MEAN_ANOMALY":222.5605,"EPHEMERIS_TYPE":0,"CLASSIFICATION_TYPE":"U","NORAD_CAT_ID":63349,"ELEMENT_SET_NO":999,"REV_AT_EPOCH":5331,"BSTAR":0.00030523847,"MEAN_MOTION_DOT":4.989e-5,"MEAN_MOTION_DDOT":0}]
